OPTICUBE 04             
1 41851U 16067D   19118.80715699  .00000437  00000-0  43443-4 0  9990
2 41851  97.9128 215.8139 0008906 185.0068 175.1065 14.96785061134300
AEROCUBE 8D             
1 41852U 16067E   19118.80663170  .00000545  00000-0  53047-4 0  9998
2 41852  97.9140 215.6387 0009682 185.7754 174.3357 14.96681809134286
AEROCUBE 8C             
1 41853U 16067F   19118.89518105  .00000377  00000-0  38360-4 0  9999
2 41853  97.9146 215.6690 0009731 186.0517 174.0588 14.96652387134299
PROMETHEUS 2-1          
1 41854U 16067G   19118.80277132  .00000525  00000-0  51039-4 0  9996
2 41854  97.9144 215.6874 0010376 187.5087 172.5980 14.96844991134289
PROMETHEUS 2-3          
1 41855U 16067H   19118.87212914  .00000648  00000-0  61800-4 0  9994
2 41855  97.9147 215.7713 0010539 187.4270 172.6797 14.96850328134299
INS-1B                  
1 41954U 17008G   19118.73731857  .00001123  00000-0  49568-4 0  9993
2 41954  97.4038 184.4397 0008271 334.6664  25.4167 15.23810870122041
BGUSAT                  
1 41999U 17008BD  19118.92353300  .00001941  00000-0  78550-4 0  9997
2 41999  97.4104 186.7795 0007511 351.4599   8.6510 15.25892419121552
DIDO-2                  
1 42000U 17008BE  19118.92240422  .00000798  00000-0  36060-4 0  9990
2 42000  97.4050 185.1624 0008136 354.9852   5.1302 15.23798779121478
PEASSS                  
1 42015U 17008BV  19118.85217157  .00000995  00000-0  43084-4 0  9990
2 42015  97.4057 185.9711 0006248   4.9671 355.1627 15.24738271122009
AL-FARABI 1             
1 42016U 17008BW  19118.87157075  .00001332  00000-0  55679-4 0  9994
2 42016  97.4071 186.4732 0006048   4.7864 355.3431 15.25338687122154
NAYIF-1 (EO-88)         
1 42017U 17008BX  19118.92576469  .00001358  00000-0  56664-4 0  9996
2 42017  97.4068 186.5363 0006048   5.0099 355.1199 15.25370653122187
PHOENIX                 
1 42706U 98067LP  19118.57559326  .00457982  11458-3  51185-3 0  9991
2 42706  51.6181 163.5686 0009188  12.9604 347.1644 16.08736093111753
ALTAIR PATHFINDER       
1 42711U 98067LS  19118.64902708  .00028340  00000-0  17232-3 0  9996
2 42711  51.6351 193.8606 0004158 325.8039  34.2693 15.77237446111027
SHARC                   
1 42712U 98067LT  19118.63186439  .00890712  49402-3  71095-3 0  9990
2 42712  51.6205 179.9824 0010695   0.8593 359.2439 16.13741437111446
ZA-AEROSAT              
1 42713U 98067LU  19118.58389114  .00151622  20450-4  34075-3 0  9990
2 42713  51.6269 171.3365 0007736   4.2201 355.8872 15.97337411111312
NJUST-1                 
1 42722U 98067MB  19118.65182872  .00075706  00000-0  26130-3 0  9996
2 42722  51.6356 178.4347 0007614   2.1645 133.0831 15.88815976110295
NSIGHT                  
1 42726U 98067MF  19118.54750510  .00017471  00000-0  15060-3 0  9993
2 42726  51.6364 209.9458 0005898 340.3713  19.7056 15.69360291109781
BEEAGLESAT              
1 42736U 98067MR  19116.58349394  .05344197  12378-4  56382-3 0  9990
2 42736  51.6116 172.4218 0006034 335.7210 140.8917 16.36759636110007
UCLSAT                  
1 42765U 17036A   19118.87020064  .00001106  00000-0  50489-4 0  9996
2 42765  97.3560 177.9554 0012878  54.3123 305.9310 15.22615857103320
LITUANICASAT-2          
1 42768U 17036D   19118.71793293  .00001900  00000-0  84554-4 0  9995
2 42768  97.3593 177.3840 0016300  44.8771 315.3780 15.22583813102554
AALTO-1                 
1 42775U 17036L   19118.75215243  .00000713  00000-0  34915-4 0  9998
2 42775  97.3547 176.7045 0015155  44.6342 315.6111 15.21250202102463
URSA MAIOR              
1 42776U 17036M   19118.91453585  .00000769  00000-0  37296-4 0  9996
2 42776  97.3555 176.9945 0014962  44.1797 316.0630 15.21375959102499
COMPASS 2               
1 42777U 17036N   19118.74007859  .00001483  00000-0  66426-4 0  9998
2 42777  97.3591 177.8581 0013754  46.8199 313.4185 15.22719146102519
DIAMOND RED             
1 42783U 17036U   19118.83186549  .00000917  00000-0  42994-4 0  9994
2 42783  97.3561 177.5607 0013567  54.9317 305.3190 15.22090161102518
PEGASUS                 
1 42784U 17036V   19118.95196073  .00001039  00000-0  47918-4 0  9998
2 42784  97.3564 177.8731 0013440  54.1892 306.0591 15.22370242102540
DIAMOND GREEN           
1 42785U 17036W   19118.83069424  .00000923  00000-0  43268-4 0  9990
2 42785  97.3562 177.5819 0013479  55.5647 304.6861 15.22090011102501
DIAMOND BLUE            
1 42786U 17036X   19118.89545275  .00000903  00000-0  42378-4 0  9999
2 42786  97.3562 177.6441 0013323  55.6009 304.6485 15.22088871102597
NUDTSAT                 
1 42787U 17036Y   19118.91519936  .00001663  00000-0  72947-4 0  9997
2 42787  97.3584 178.4327 0013463  49.7931 310.4479 15.23273277102413
SUCHAI                  
1 42788U 17036Z   19118.90679586  .00001244  00000-0  56176-4 0  9996
2 42788  97.3568 178.0937 0013004  53.9987 306.2454 15.22762087102628
SKCUBE                  
1 42789U 17036AA  19118.91939124  .00001149  00000-0  52227-4 0  9992
2 42789  97.3564 178.0589 0012861  54.1304 306.1125 15.22671625102546
VZLUSAT-1               
1 42790U 17036AB  19118.70499582  .00001537  00000-0  67676-4 0  9995
2 42790  97.3578 178.2298 0012436  54.4785 305.7610 15.23274946102535
ROBUSTA-1B              
1 42792U 17036AD  19118.85570755  .00001153  00000-0  52169-4 0  9990
2 42792  97.3564 178.1309 0012467  55.1023 305.1383 15.22834450102555
CICERO 6                
1 42793U 17036AE  19118.70572155  .00000810  00000-0  37930-4 0  9999
2 42793  97.3550 177.8112 0011751  57.1874 303.0493 15.22475391102598
D-SAT                   
1 42794U 17036AF  19118.87314004  .00000267  00000-0  28893-4 0  9999
2 42794  97.5453 165.7943 0125388 311.5198  47.5316 14.91066271100768
TOKI                    
1 42820U 98067MU  19118.80304888  .00984757  67715-3  59269-3 0  9998
2 42820  51.6184 166.5894 0008717   3.1536 356.9535 16.17739280103748
MAZAALAI (NUMSAT-1)     
1 42822U 98067MW  19118.61489582  .00376353  77848-4  47408-3 0  9992
2 42822  51.6228 170.6966 0009531   6.8891 353.2251 16.06875201103651
BRAC ONNESHA            
1 42823U 98067MX  19118.87856213  .00596971  20337-3  53775-3 0  9994
2 42823  51.6195 167.8931 0009752   4.9785 355.1325 16.11965491103730
NIGERIAEDUSAT-1         
1 42824U 98067MY  19118.62043548  .00321118  58115-4  44711-3 0  9992
2 42824  51.6237 171.5601 0009853   4.2393 355.8701 16.05284593103661
CORVUS BC2              
1 42846U 17042X   19118.77494008  .00000175  00000-0  22560-4 0  9999
2 42846  97.5714  14.7911 0008533 217.6519 142.4104 14.91951886 97422
CORVUS BC1              
1 42847U 17042Y   19118.66452800  .00000256  00000-0  30504-4 0  9999
2 42847  97.5714  14.7831 0008195 217.5190 142.5458 14.92052027 97403
MIRATA                  
1 43015U 17073C   19118.73796602  .00001197  00000-0  99338-4 0  9995
2 43015  97.7193  41.9349 0254977 324.1521  34.2807 14.78888185 77762
MAKERSAT 0              
1 43016U 17073D   19118.74406607  .00000816  00000-0  69501-4 0  9996
2 43016  97.7226  42.1357 0256996 324.3983  34.0315 14.78668928 77762
ASTERIA                 
1 43020U 98067NH  19118.73550955  .00023078  00000-0  20316-3 0  9993
2 43020  51.6419 219.6204 0002603 315.1413  44.9373 15.68647246 81851
DELLINGR (RBLE)         
1 43021U 98067NJ  19118.80821217  .00008217  00000-0  97065-4 0  9998
2 43021  51.6380 229.0105 0002148 280.2538  79.8214 15.62291509 81737
AEROCUBE 7B (OCSD B)    
1 43042U 17071F   19118.79275093  .00003619  00000-0  96381-4 0  9991
2 43042  51.6383 301.7096 0004272 336.9342  23.1451 15.40885192 78231
AEROCUBE 7C (OCSD C)    
1 43043U 17071G   19118.92237023  .00003012  00000-0  81920-4 0  9998
2 43043  51.6386 301.0886 0004481 339.6233  20.4573 15.40870680 78226
CHEFSAT                 
1 43044U 17071H   19118.80175565  .00005443  00000-0  12955-3 0  9999
2 43044  51.6385 297.3819 0004171 336.7174  23.3622 15.43265986 78268
ASGARDIA 1              
1 43049U 17071N   19118.81368195  .00002850  00000-0  77684-4 0  9998
2 43049  51.6392 301.1367 0002189   6.0129 354.0882 15.40998151 78218
ISARA                   
1 43050U 17071P   19118.93077356  .00004900  00000-0  11935-3 0  9993
2 43050  51.6379 297.4578 0001883   2.2742 357.8252 15.42797758 78275
PROPCUBE 2 (FAUNA)      
1 43052U 17071R   19118.76337868  .00003283  00000-0  87312-4 0  9999
2 43052  51.6386 300.8178 0002046   2.4964 357.6031 15.41252749 78201
CORVUS BC3              
1 43118U 18004H   19118.87731000  .00000715  00000-0  33627-4 0  9994
2 43118  97.4903 186.3927 0012091  73.4048 286.8515 15.22757501 71745
MICROMAS-2A             
1 43131U 18004W   19118.92439974  .00001758  00000-0  75635-4 0  9993
2 43131  97.4925 187.0157 0011105  75.7140 284.5329 15.23925417 71786
CICERO 7                
1 43143U 18004AJ  19118.75580410  .00001359  00000-0  58919-4 0  9992
2 43143  97.4914 187.0586 0009306  84.5290 275.7009 15.24091069 71771
GOMX-4B                 
1 43196U 18015E   19118.88141994  .00000498  00000-0  23480-4 0  9994
2 43196  97.3815 247.1658 0019819 123.4019 236.9111 15.23891321 68607
GOMX-4A                 
1 43197U 18015F   19118.95726404  .00000435  00000-0  20799-4 0  9999
2 43197  97.3839 247.2633 0020906 123.5878  16.0990 15.23979769 68628
1KUNS-PF                
1 43466U 98067NP  19118.77639250  .00018660  00000-0  19604-3 0  9996
2 43466  51.6371 232.5313 0001308 308.9680  51.1198 15.64381725 54942
UBAKUSAT                
1 43467U 98067NQ  19118.55873753  .00011729  00000-0  13916-3 0  9990
2 43467  51.6370 236.3232 0002237 246.2813 113.7946 15.61683853 54881
BATSU-CS1 (IRAZU)       
1 43468U 98067NR  19118.71915760  .00025135  00000-0  24044-3 0  9994
2 43468  51.6365 230.6374 0001707 316.1470  43.9390 15.66536741154951
CUBERRT                 
1 43546U 98067NU  19118.76547103  .00025840  00000-0  28667-3 0  9996
2 43546  51.6376 236.9495 0005658 304.9983  55.0479 15.62747793 45022
